H1 CPF 01  gfz 2022 01 18 01  5181 terrasarx 
H2 0702601  6201 31698    2022 01 18 00 59 42 2022 01 23 00 00 42   120 1 1  0 0 0
H9
10 0 59600  75582.000000  0    4856653.108  -4866058.926    442666.041
10 0 59600  75702.000000  0    4645823.612  -4905753.095   1339458.674
10 0 59600  75822.000000  0    4353873.139  -4855285.950   2212667.775
10 0 59600  75942.000000  0    3987478.053  -4714167.103   3046915.340
10 0 59600  76062.000000  0    3554623.236  -4483633.834   3827514.354
10 0 59600  76182.000000  0    3064426.912  -4166647.479   4540732.996
10 0 59600  76302.000000  0    2526945.737  -3767854.376   5174038.723
10 0 59600  76422.000000  0    1952965.226  -3293513.744   5716317.910
10 0 59600  76542.000000  0    1353779.608  -2751393.631   6158068.444
10 0 59600  76662.000000  0     740966.700  -2150637.763   6491560.329
10 0 59600  76782.000000  0     126162.557  -1501607.354   6710964.540
10 0 59600  76902.000000  0    -479159.353   -815700.013   6812449.022
10 0 59600  77022.000000  0   -1063901.140   -105147.888   6794241.583
10 0 59600  77142.000000  0   -1617543.097    617200.346   6656658.701
10 0 59600  77262.000000  0   -2130332.344   1338111.196   6402100.275
10 0 59600  77382.000000  0   -2593454.879   2044207.770   6035010.437
10 0 59600  77502.000000  0   -2999188.167   2722217.644   5561805.055
10 0 59600  77622.000000  0   -3341032.595   3359223.847   4990766.213
10 0 59600  77742.000000  0   -3613819.618   3942913.784   4331903.349
10 0 59600  77862.000000  0   -3813793.518   4461822.222   3596782.845
10 0 59600  77982.000000  0   -3938664.924   4905562.762   2798327.532
10 0 59600  78102.000000  0   -3987634.747   5265042.054   1950588.471
10 0 59600  78222.000000  0   -3961386.781   5532650.527   1068494.204
10 0 59600  78342.000000  0   -3862050.866   5702426.232    167583.000
10 0 59600  78462.000000  0   -3693137.081   5770188.335   -736278.959
10 0 59600  78582.000000  0   -3459440.064   5733633.785  -1627187.713
10 0 59600  78702.000000  0   -3166917.123   5592394.663  -2489491.348
10 0 59600  78822.000000  0   -2822542.290   5348056.180  -3308071.139
10 0 59600  78942.000000  0   -2434144.123   5004135.602  -4068609.817
10 0 59600  79062.000000  0   -2010229.483   4566022.678  -4757841.601
10 0 59600  79182.000000  0   -1559798.104   4040884.871  -5363777.739
10 0 59600  79302.000000  0   -1092153.514   3437541.872  -5875907.239
10 0 59600  79422.000000  0    -616712.629   2766309.598  -6285370.641
10 0 59600  79542.000000  0    -142818.281   2038817.438  -6585101.891
10 0 59600  79662.000000  0     320440.288   1267804.943  -6769938.562
10 0 59600  79782.000000  0     764396.944    466900.099  -6836702.212
10 0 59600  79902.000000  0    1180967.187   -349617.581  -6784247.301
10 0 59600  80022.000000  0    1562791.484  -1167066.803  -6613477.509
10 0 59600  80142.000000  0    1903361.726  -1970621.298  -6327330.956
10 0 59600  80262.000000  0    2197130.766  -2745571.720  -5930735.688
10 0 59600  80382.000000  0    2439602.699  -3477590.536  -5430535.293
10 0 59600  80502.000000  0    2627403.395  -4152997.840  -4835381.850
10 0 59600  80622.000000  0    2758328.050  -4759018.347  -4155595.244
10 0 59600  80742.000000  0    2831365.602  -5284026.406  -3402995.173
10 0 59600  80862.000000  0    2846699.608  -5717777.589  -2590704.902
10 0 59600  80982.000000  0    2805684.994  -6051618.147  -1732927.025
10 0 59600  81102.000000  0    2710801.344  -6278667.903   -844696.357
10 0 59600  81222.000000  0    2565581.268  -6393970.932     58387.669
10 0 59600  81342.000000  0    2374516.099  -6394607.853    960441.346
10 0 59600  81462.000000  0    2142942.367  -6279769.272   1845583.687
10 0 59600  81582.000000  0    1876910.270  -6050786.047   2698226.498
10 0 59600  81702.000000  0    1583038.070  -5711114.838   3503356.985
10 0 59600  81822.000000  0    1268356.613  -5266281.605   4246807.806
10 0 59600  81942.000000  0     940147.915  -4723784.831   4915509.248
10 0 59600  82062.000000  0     605781.845  -4092961.598   5497720.624
10 0 59600  82182.000000  0     272553.919  -3384816.625   5983235.284
10 0 59600  82302.000000  0     -52470.287  -2611820.384   6363554.059
10 0 59600  82422.000000  0    -362601.969  -1787683.480   6632026.756
10 0 59600  82542.000000  0    -651663.925   -927110.783   6783962.442
10 0 59600  82662.000000  0    -914111.742    -45537.489   6816707.593
10 0 59600  82782.000000  0   -1145139.192    841148.497   6729689.807
10 0 59600  82902.000000  0   -1340765.785   1716892.484   6524426.816
10 0 59600  83022.000000  0   -1497905.240   2565762.873   6204501.732
10 0 59600  83142.000000  0   -1614414.494   3372241.165   5775504.446
10 0 59600  83262.000000  0   -1689121.930   4121507.337   5244939.156
10 0 59600  83382.000000  0   -1721834.311   4799716.433   4622100.161
10 0 59600  83502.000000  0   -1713323.014   5394261.730   3917914.337
10 0 59600  83622.000000  0   -1665288.411   5894017.600   3144752.876
10 0 59600  83742.000000  0   -1580305.064   6289556.816   2316215.003
10 0 59600  83862.000000  0   -1461747.120   6573338.065   1446886.673
10 0 59600  83982.000000  0   -1313694.587   6739857.630    552078.540
10 0 59600  84102.000000  0   -1140824.364   6785761.011   -352450.264
10 0 59600  84222.000000  0    -948288.649   6709913.709  -1250778.516
10 0 59600  84342.000000  0    -741582.558   6513424.668  -2127114.707
10 0 59600  84462.000000  0    -526406.454   6199621.736  -2966082.323
10 0 59600  84582.000000  0    -308526.447   5773984.657  -3752992.804
10 0 59600  84702.000000  0     -93635.576   5244038.233  -4474103.325
10 0 59600  84822.000000  0     112780.684   4619207.022  -5116854.482
10 0 59600  84942.000000  0     305571.737   3910636.347  -5670083.123
10 0 59600  85062.000000  0     480038.975   3130983.424  -6124207.893
10 0 59600  85182.000000  0     632039.695   2294183.696  -6471384.180
10 0 59600  85302.000000  0     758076.603   1415198.933  -6705627.778
10 0 59600  85422.000000  0     855371.538    509750.958  -6822908.015
10 0 59600  85542.000000  0     921921.972   -405955.625  -6821209.786
10 0 59600  85662.000000  0     956539.734  -1315517.970  -6700563.707
10 0 59600  85782.000000  0     958871.397  -2202620.823  -6463043.872
10 0 59600  85902.000000  0     929400.890  -3051320.763  -6112737.120
10 0 59600  86022.000000  0     869433.480  -3846329.288  -5655682.425
10 0 59600  86142.000000  0     781060.773  -4573287.778  -5099775.805
10 0 59600  86262.000000  0     667108.901  -5219028.408  -4454645.054
10 0 59600  86382.000000  0     531069.026  -5771819.245  -3731494.500
10 0 59601    102.000000  0     377011.698  -6221587.135  -2942919.104
10 0 59601    222.000000  0     209486.889  -6560112.762  -2102691.604
10 0 59601    342.000000  0      33411.774  -6781194.449  -1225524.642
10 0 59601    462.000000  0    -146051.655  -6880773.937   -326810.976
10 0 59601    582.000000  0    -323625.981  -6857020.209    577651.571
10 0 59601    702.000000  0    -494051.546  -6710369.945   1471944.493
10 0 59601    822.000000  0    -652220.108  -6443523.166   2340317.761
10 0 59601    942.000000  0    -793305.389  -6061392.344   3167476.999
10 0 59601   1062.000000  0    -912885.894  -5571005.304   3938861.369
10 0 59601   1182.000000  0   -1007058.711  -4981366.877   4640903.677
10 0 59601   1302.000000  0   -1072541.129  -4303284.224   5261270.407
10 0 59601   1422.000000  0   -1106756.745  -3549159.689   5789078.152
10 0 59601   1542.000000  0   -1107905.410  -2732753.535   6215082.040
10 0 59601   1662.000000  0   -1075014.091  -1868924.612   6531830.378
10 0 59601   1782.000000  0   -1007968.893   -973356.833   6733788.165
10 0 59601   1902.000000  0    -907528.700    -62272.355   6817429.154
10 0 59601   2022.000000  0    -775319.410    847862.744   6781293.414
10 0 59601   2142.000000  0    -613807.422   1740635.569   6626011.624
10 0 59601   2262.000000  0    -426253.549   2599981.963   6354294.637
10 0 59601   2382.000000  0    -216648.408   3410475.415   5970889.074
10 0 59601   2502.000000  0      10369.214   4157605.853   5482499.436
10 0 59601   2622.000000  0     249610.307   4828043.115   4897676.564
10 0 59601   2742.000000  0     495448.770   5409882.003   4226674.526
10 0 59601   2862.000000  0     741946.250   5892861.198   3481273.203
10 0 59601   2982.000000  0     982986.553   6268553.037   2674578.251
10 0 59601   3102.000000  0    1212419.684   6530526.038   1820788.111
10 0 59601   3222.000000  0    1424207.062   6674460.611    934938.101
10 0 59601   3342.000000  0    1612567.093   6698225.622     32628.755
10 0 59601   3462.000000  0    1772116.848   6601909.890   -870256.982
10 0 59601   3582.000000  0    1898005.596   6387809.564  -1757841.349
10 0 59601   3702.000000  0    1986037.646   6060372.201  -2614538.250
10 0 59601   3822.000000  0    2032781.279   5626098.502  -3425333.111
10 0 59601   3942.000000  0    2035661.057   5093403.854  -4176049.943
10 0 59601   4062.000000  0    1993031.158   4472443.273  -4853598.866
10 0 59601   4182.000000  0    1904228.104   3774906.476  -5446199.251
10 0 59601   4302.000000  0    1769603.019   3013789.058  -5943576.395
10 0 59601   4422.000000  0    1590532.035   2203143.610  -6337129.835
10 0 59601   4542.000000  0    1369405.498   1357817.236  -6620069.905
10 0 59601   4662.000000  0    1109597.426    493181.085  -6787524.344
10 0 59601   4782.000000  0     815414.016   -375145.682  -6836613.883
10 0 59601   4902.000000  0     492022.595  -1231572.801  -6766495.439
10 0 59601   5022.000000  0     145362.767  -2060811.290  -6578373.441
10 0 59601   5142.000000  0    -217959.001  -2848138.420  -6275482.432
10 0 59601   5262.000000  0    -590791.814  -3579655.667  -5863038.837
10 0 59601   5382.000000  0    -965576.310  -4242532.187  -5348159.427
10 0 59601   5502.000000  0   -1334492.728  -4825231.599  -4739750.364
10 0 59601   5622.000000  0   -1689619.608  -5317718.904  -4048364.654
99
